STARLINK-5352           
1 56426U 23061BE  23153.87090377  .00003934  00000+0  33427-4 0  9991
2 56426  42.9979 293.1330 0001884 263.2683  96.7970 15.71360228  4666
STARLINK-5724           
1 56427U 23061BF  23153.87100971  .00002958  00000+0  25994-4 0  9999
2 56427  42.9975 293.1339 0002122 275.2190  84.8436 15.71356823  4665
STARLINK-6238           
1 56428U 23061BG  23153.87079962  .00006610  00000+0  53796-4 0  9995
2 56428  42.9977 293.1338 0001815 265.5921  94.4739 15.71362535  4669
STARLINK-6264           
1 56429U 23061BH  23153.87069391  .00001934  00000+0  18195-4 0  9999
2 56429  42.9993 293.1314 0001942 258.8868 101.1782 15.71355688  4663
FALCON 9 DEB            
1 56430U 23061BJ  23154.07790053  .00656872  21653-3  89445-3 0  9993
2 56430  43.0147 286.7486 0011494 238.2638 121.7123 16.05321576  4750
FALCON 9 DEB            
1 56431U 23061BK  23154.06373825  .00672546  23186-3  85040-3 0  9993
2 56431  43.0066 286.6179 0010472 244.0252 115.9551 16.06534475  4756
FALCON 9 DEB            
1 56432U 23061BL  23153.66932748  .00741453  28964-3  88417-3 0  9998
2 56432  43.0072 288.8002 0007539 235.2943 124.7229 16.07528494  4690
FALCON 9 DEB            
1 56433U 23061BM  23153.79866343  .00714677  26423-3  89715-3 0  9998
2 56433  43.0033 288.0472 0007890 240.8131 119.1961 16.06707900  4716
TROPICS-05              
1 56442U 23062A   23153.90206204  .00009803  00000+0  63804-3 0  9994
2 56442  32.7378 346.5433 0009824 108.7257 251.4478 15.06908004  3898
2023-062B               
1 56443U 23062B   23153.95350099  .00011211  00000+0  71187-3 0  9991
2 56443  32.7348 346.0040 0012161 108.6908 251.5082 15.07799274  3907
TROPICS-06              
1 56444U 23062C   23153.88337105  .00009738  00000+0  61427-3 0  9994
2 56444  32.7374 346.3853 0014322 101.5853 258.6425 15.08006309  3869
2023-062D               
1 56445U 23062D   23153.98946400  .00009073  00000+0  61245-3 0  9990
2 56445  35.4834 352.3727 0011506  87.9764 272.2272 15.05920483  3886
TIANZHOU-6              
1 56446U 23063A   23153.50364300  .00024582  00000+0  30305-3 0  9998
2 56446  41.4740 245.1028 0003882 283.8731  76.1676 15.59611994119545
STARLINK-5990           
1 56448U 23064A   23154.10136108  .00003682  00000+0  32380-4 0  9995
2 56448  69.9974 179.5946 0003690 275.0243  85.0531 15.69919073  4045
STARLINK-5993           
1 56449U 23064B   23153.78319765 -.00000213  00000+0 -14310-8 0  9997
2 56449  69.9976 180.4912 0003453 268.3089  91.7711 15.69922650  3646
STARLINK-5970           
1 56450U 23064C   23154.10125629  .00001281  00000+0  12423-4 0  9993
2 56450  69.9967 179.5942 0003702 271.2217  88.8555 15.69919740  4047
STARLINK-5985           
1 56451U 23064D   23153.46450897 -.00000077  00000+0  11279-5 0  9992
2 56451  69.9976 181.3848 0003436 267.4683  92.6119 15.69919972  3597
STARLINK-5986           
1 56452U 23064E   23153.78298258  .00000904  00000+0  92897-5 0  9992
2 56452  69.9968 180.4906 0003955 265.3846  94.6898 15.69927643  3644
STARLINK-5935           
1 56453U 23064F   23153.78287913  .00001610  00000+0  15160-4 0  9991
2 56453  69.9976 180.4877 0003722 269.0088  91.0681 15.69926303  3645
STARLINK-5959           
1 56454U 23064G   23153.78224863  .00003001  00000+0  26715-4 0  9991
2 56454  69.9977 180.4883 0003426 269.8619  90.2184 15.69924722  3645
STARLINK-5987           
1 56455U 23064H   23153.78214271  .00000529  00000+0  61657-5 0  9991
2 56455  69.9972 180.4853 0003468 266.1896  93.8903 15.69924722  3649
STARLINK-5995           
1 56456U 23064J   23153.78255859  .00002280  00000+0  20719-4 0  9998
2 56456  69.9970 180.4883 0003587 265.1483  94.9303 15.69933460  3649
STARLINK-5994           
1 56457U 23064K   23153.78235444  .00000417  00000+0  52421-5 0  9993
2 56457  69.9976 180.4855 0003449 266.2379  93.8422 15.69922144  3645
STARLINK-6050           
1 56458U 23064L   23154.10104368  .00006923  00000+0  59294-4 0  9993
2 56458  69.9972 179.5917 0003602 266.5590  93.5193 15.69925083  4041
STARLINK-6048           
1 56459U 23064M   23153.78172245  .00000239  00000+0  37562-5 0  9995
2 56459  69.9972 180.4842 0003533 268.3681  91.7110 15.69921469  3642
STARLINK-6047           
1 56460U 23064N   23153.46345425 -.00000152  00000+0  50639-6 0  9990
2 56460  69.9974 181.3816 0003474 264.3109  95.7690 15.69920379  3592
STARLINK-6037           
1 56461U 23064P   23153.78151004 -.00000082  00000+0  10900-5 0  9992
2 56461  69.9973 180.4831 0003453 264.6070  95.4732 15.69923499  3642
STARLINK-6045           
1 56462U 23064Q   23154.25001157 -.00063694  00000+0 -53148-3 0  9997
2 56462  69.9990 178.5649 0003370 274.0102   2.5649 15.69946007  4081
STARLINK-6051           
1 56463U 23064R   23153.78140670  .00000037  00000+0  20773-5 0  9999
2 56463  69.9973 180.4828 0003566 269.1964  90.8823 15.69920240  3648
STARLINK-6043           
1 56464U 23064S   23153.78182816 -.00000245  00000+0 -27088-6 0  9998
2 56464  69.9971 180.4843 0003380 266.0879  93.9930 15.69922114  3644
STARLINK-6054           
1 56465U 23064T   23153.91667824 -.00661546  00000+0 -51854-2 0  9992
2 56465  69.9943 179.2406 0003221 269.3291 144.7079 15.73165036  1300
STARLINK-6053           
1 56466U 23064U   23154.10021288 -.00001951  00000+0 -14470-4 0  9996
2 56466  69.9970 179.5872 0003352 269.5079  90.5732 15.69905609  4043
STARLINK-6055           
1 56467U 23064V   23154.09935895  .00016758  00000+0  14080-3 0  9998
2 56467  69.9974 179.5838 0002645 275.0241  85.0653 15.69936564  4042
STARLINK-5998           
1 56468U 23064W   23153.78119518 -.00000357  00000+0 -12016-5 0  9999
2 56468  69.9972 180.4811 0003521 269.1412  90.9380 15.69921925  3643
STARLINK-5518           
1 56469U 23064X   23153.78108837  .00000161  00000+0  31064-5 0  9997
2 56469  69.9974 180.4806 0003399 269.9022  90.1784 15.69924447  3640
STARLINK-5523           
1 56470U 23064Y   23154.09946400  .00001252  00000+0  12184-4 0  9993
2 56470  69.9971 179.5853 0003452 272.7951  87.2850 15.69922430  4049
STARLINK-5521           
1 56471U 23064Z   23154.09914785  .00011600  00000+0  98086-4 0  9998
2 56471  69.9976 179.5837 0002975 273.7825  86.3030 15.69931475  4046
STARLINK-5038           
1 56472U 23064AA  23154.09926118  .00002405  00000+0  21776-4 0  9997
2 56472  69.9973 179.5839 0002597 276.3717  83.7183 15.69914964  4049
STARLINK-5486           
1 56473U 23064AB  23153.46166014  .00001644  00000+0  15437-4 0  9990
2 56473  69.9975 181.3730 0003298 269.5735  90.5083 15.69927808  3591
STARLINK-5524           
1 56474U 23064AC  23153.78098324  .00000505  00000+0  59674-5 0  9991
2 56474  69.9970 180.4813 0003374 267.7966  92.2843 15.69925906  3646
STARLINK-5541           
1 56475U 23064AD  23154.09851569  .00006619  00000+0  56769-4 0  9998
2 56475  69.9982 179.5806 0003304 275.6212  84.4607 15.69924981  4044
STARLINK-5545           
1 56476U 23064AE  23154.09904282 -.00000052  00000+0  13350-5 0  9996
2 56476  69.9973 179.5828 0003346 268.0345  92.0468 15.69918715  4046
STARLINK-5534           
1 56477U 23064AF  23154.09840833 -.00002666  00000+0 -20411-4 0  9997
2 56477  69.9981 179.5783 0003307 280.8379  79.2445 15.69925721  4049
STARLINK-6041           
1 56478U 23064AG  23154.09872553  .00010773  00000+0  91216-4 0  9999
2 56478  69.9978 179.5806 0003088 270.5979  89.4863 15.69932312  4041
STARLINK-6044           
1 56479U 23064AH  23153.46081676  .00003359  00000+0  29689-4 0  9995
2 56479  69.9976 181.3686 0003459 262.4863  97.5940 15.69929164  3946
STARLINK-6214           
1 56480U 23064AJ  23154.09893623  .00014082  00000+0  11864-3 0  9990
2 56480  69.9975 179.5815 0003273 271.5074  88.5746 15.69934095  4044
STARLINK-6222           
1 56481U 23064AK  23154.09819831  .00001396  00000+0  13377-4 0  9996
2 56481  69.9974 179.5778 0003279 269.0513  91.0307 15.69922983  4043
STARLINK-6220           
1 56482U 23064AL  23153.46145027  .00003434  00000+0  30309-4 0  9995
2 56482  69.9980 181.3714 0003413 263.0299  97.0508 15.69928880  3597
STARLINK-5868           
1 56483U 23064AM  23153.46071461  .00001113  00000+0  11023-4 0  9990
2 56483  69.9981 181.3680 0003477 260.1770  99.9033 15.69921811  3594
STARLINK-6221           
1 56484U 23064AN  23154.09830556 -.00000091  00000+0  10101-5 0  9991
2 56484  69.9973 179.5795 0003423 272.1009  87.9795 15.69917765  4047
STARLINK-6210           
1 56485U 23064AP  23154.09777818  .00014724  00000+0  12397-3 0  9997
2 56485  69.9983 179.5756 0003235 281.2757  78.8075 15.69931575  4043
STARLINK-6201           
1 56486U 23064AQ  23154.09809384  .00000602  00000+0  67802-5 0  9995
2 56486  69.9974 179.5782 0003439 268.4328  91.6473 15.69921683  4044
STARLINK-6196           
1 56487U 23064AR  23154.09746035  .00007421  00000+0  63428-4 0  9994
2 56487  69.9980 179.5746 0003613 275.2425  84.8358 15.69925656  4040
STARLINK-6204           
1 56488U 23064AS  23154.09767054  .00013288  00000+0  11206-3 0  9993
2 56488  69.9973 179.5771 0003745 271.5668  88.5099 15.69931842  4042
STARLINK-5923           
1 56489U 23064AT  23154.09735662  .00025490  00000+0  21298-3 0  9994
2 56489  69.9978 179.5733 0003343 277.7697  82.3119 15.69939163  4049
STARLINK-5873           
1 56490U 23064AU  23154.09756596  .00016251  00000+0  13658-3 0  9991
2 56490  69.9979 179.5757 0003366 273.8326  86.2485 15.69937636  4041
STARLINK-5842           
1 56491U 23064AV  23153.46008230  .00000561  00000+0  64389-5 0  9993
2 56491  69.9978 181.3650 0003425 269.8054  90.2749 15.69920857  3597
STARLINK-5846           
1 56492U 23064AW  23154.09704093  .00023795  00000+0  19902-3 0  9997
2 56492  69.9980 179.5723 0003226 284.7190  75.3648 15.69934384  4040
STARLINK-5841           
1 56493U 23064AX  23154.09651223  .00009152  00000+0  77784-4 0  9998
2 56493  69.9981 179.5705 0003208 266.8985  93.1844 15.69929683  4047
